{"spaceTrack"{"CCSDS_OMM_VERS":"2.0","COMMENT":"GENERATED VIA SPACE-TRACK.ORG API","CREATION_DATE":"2021-01-26T02:30:00","ORIGINATOR":"18 SPCS","OBJECT_NAME":"STARLINK-1204","OBJECT_ID":"2020-012AB","CENTER_NAME":"EARTH","REF_FRAME":"TEME","TIME_SYSTEM":"UTC","MEAN_ELEMENT_THEORY":"SGP4","EPOCH":"2021-01-25T18:32:22.722144","MEAN_MOTION":15.06430404,"ECCENTRICITY":0.0001128,"INCLINATION":53.0006,"RA_OF_ASC_NODE":136.4948,"ARG_OF_PERICENTER":113.9338,"MEAN_ANOMALY":246.1768,"EPHEMERIS_TYPE":0,"CLASSIFICATION_TYPE":"U","NORAD_CAT_ID":45203,"ELEMENT_SET_NO":999,"REV_AT_EPOCH":5336,"BSTAR":0.000047971,"MEAN_MOTION_DOT":0.00000434,"MEAN_MOTION_DDOT":0,"SEMIMAJOR_AXIS":6925.255,"PERIOD":95.59,"APOAPSIS":547.902,"PERIAPSIS":546.339,"OBJECT_TYPE":"PAYLOAD","RCS_SIZE":"LARGE","COUNTRY_CODE":"US","LAUNCH_DATE":"2020-02-17","SITE":"AFETR","DECAY_DATE":null,"DECAYED":0,"FILE":2939303,"GP_ID":170371690,"TLE_LINE0":"0 STARLINK-1204","TLE_LINE1":"1 45203U 20012AB  21025.77248521  .00000434  00000-0  47971-4 0  9998","TLE_LINE2":"2 45203  53.0006 136.4948 0001128 113.9338 246.1768 15.06430404 53363"},"version":"v1.0","launch":"5eb87d41ffd86e000604b383","longitude":4,"latitude":51.79891163537463,"height_km":552.7338507953054,"velocity_kms":7.5919981687447455,"id":"5eed7715096e59000698572c"}
{"spaceTrack"{"CCSDS_OMM_VERS":"2.0","COMMENT":"GENERATED VIA SPACE-TRACK.ORG API","CREATION_DATE":"2021-01-26T02:30:00","ORIGINATOR":"18 SPCS","OBJECT_NAME":"STARLINK-1146","OBJECT_ID":"2020-006BC","CENTER_NAME":"EARTH","REF_FRAME":"TEME","TIME_SYSTEM":"UTC","MEAN_ELEMENT_THEORY":"SGP4","EPOCH":"2021-01-25T21:02:18.478464","MEAN_MOTION":15.06395657,"ECCENTRICITY":0.0001775,"INCLINATION":53.0613,"RA_OF_ASC_NODE":356.0271,"ARG_OF_PERICENTER":57.514,"MEAN_ANOMALY":302.6021,"EPHEMERIS_TYPE":0,"CLASSIFICATION_TYPE":"U","NORAD_CAT_ID":45094,"ELEMENT_SET_NO":999,"REV_AT_EPOCH":5535,"BSTAR":-0.00004879,"MEAN_MOTION_DOT":-0.00001008,"MEAN_MOTION_DDOT":0,"SEMIMAJOR_AXIS":6925.362,"PERIOD":95.592,"APOAPSIS":548.456,"PERIAPSIS":545.998,"OBJECT_TYPE":"PAYLOAD","RCS_SIZE":"LARGE","COUNTRY_CODE":"US","LAUNCH_DATE":"2020-01-29","SITE":"AFETR","DECAY_DATE":null,"DECAYED":0,"FILE":2939303,"GP_ID":170371425,"TLE_LINE0":"0 STARLINK-1146","TLE_LINE1":"1 45094U 20006BC  21025.87660276 -.00001008  00000-0 -48790-4 0  9995","TLE_LINE2":"2 45094  53.0613 356.0271 0001775  57.5140 302.6021 15.06395657 55357"},"version":"v1.0","launch":"5eb87d3fffd86e000604b382","longitude":127,"latitude":-40.49922786867462,"height_km":561.8067337006205,"velocity_kms":7.579580032317479,"id":"5eed7715096e59000698572d"}
{"spaceTrack"{"CCSDS_OMM_VERS":"2.0","COMMENT":"GENERATED VIA SPACE-TRACK.ORG API","CREATION_DATE":"2021-01-26T13:36:10","ORIGINATOR":"18 SPCS","OBJECT_NAME":"STARLINK-1283","OBJECT_ID":"2020-019AF","CENTER_NAME":"EARTH","REF_FRAME":"TEME","TIME_SYSTEM":"UTC","MEAN_ELEMENT_THEORY":"SGP4","EPOCH":"2021-01-26T10:47:41.322048","MEAN_MOTION":15.06396537,"ECCENTRICITY":0.0002015,"INCLINATION":53.054,"RA_OF_ASC_NODE":253.4517,"ARG_OF_PERICENTER":88.1572,"MEAN_ANOMALY":271.9647,"EPHEMERIS_TYPE":0,"CLASSIFICATION_TYPE":"U","NORAD_CAT_ID":45389,"ELEMENT_SET_NO":999,"REV_AT_EPOCH":4842,"BSTAR":0.000049095,"MEAN_MOTION_DOT":0.0000045,"MEAN_MOTION_DDOT":0,"SEMIMAJOR_AXIS":6925.359,"PERIOD":95.592,"APOAPSIS":548.62,"PERIAPSIS":545.829,"OBJECT_TYPE":"PAYLOAD","RCS_SIZE":"LARGE","COUNTRY_CODE":"US","LAUNCH_DATE":"2020-03-18","SITE":"AFETR","DECAY_DATE":null,"DECAYED":0,"FILE":2940034,"GP_ID":170389599,"TLE_LINE0":"0 STARLINK-1283","TLE_LINE1":"1 45389U 20019AF  21026.44978382  .00000450  00000-0  49095-4 0  9997","TLE_LINE2":"2 45389  53.0540 253.4517 0002015  88.1572 271.9647 15.06396537 48423"},"version":"v1.0","launch":"5eb87d43ffd86e000604b385","longitude":14,"latitude":3.127594438974558,"height_km":547.6205296735898,"velocity_kms":7.589695379062908,"id":"5eed7715096e59000698572e"}
{"spaceTrack"{"CCSDS_OMM_VERS":"2.0","COMMENT":"GENERATED VIA SPACE-TRACK.ORG API","CREATION_DATE":"2021-01-26T13:36:10","ORIGINATOR":"18 SPCS","OBJECT_NAME":"STARLINK-1241","OBJECT_ID":"2020-012T","CENTER_NAME":"EARTH","REF_FRAME":"TEME","TIME_SYSTEM":"UTC","MEAN_ELEMENT_THEORY":"SGP4","EPOCH":"2021-01-26T11:48:41.217408","MEAN_MOTION":15.06405638,"ECCENTRICITY":0.0001577,"INCLINATION":53.0596,"RA_OF_ASC_NODE":153.2683,"ARG_OF_PERICENTER":114.1863,"MEAN_ANOMALY":245.9291,"EPHEMERIS_TYPE":0,"CLASSIFICATION_TYPE":"U","NORAD_CAT_ID":45195,"ELEMENT_SET_NO":999,"REV_AT_EPOCH":5232,"BSTAR":-0.000028565,"MEAN_MOTION_DOT":-0.00000707,"MEAN_MOTION_DDOT":0,"SEMIMAJOR_AXIS":6925.331,"PERIOD":95.592,"APOAPSIS":548.288,"PERIAPSIS":546.104,"OBJECT_TYPE":"PAYLOAD","RCS_SIZE":"LARGE","COUNTRY_CODE":"US","LAUNCH_DATE":"2020-02-17","SITE":"AFETR","DECAY_DATE":null,"DECAYED":0,"FILE":2939939,"GP_ID":170387849,"TLE_LINE0":"0 STARLINK-1241","TLE_LINE1":"1 45195U 20012T   21026.49214372 -.00000707  00000-0 -28565-4 0  9998","TLE_LINE2":"2 45195  53.0596 153.2683 0001577 114.1863 245.9291 15.06405638 52328"},"version":"v1.0","launch":"5eb87d41ffd86e000604b383","longitude":97,"latitude":35.140358484109974,"height_km":548.7718488408482,"velocity_kms":7.5926706698050435,"id":"5eed7715096e59000698572f"}
{"spaceTrack"{"CCSDS_OMM_VERS":"2.0","COMMENT":"GENERATED VIA SPACE-TRACK.ORG API","CREATION_DATE":"2021-01-26T02:30:00","ORIGINATOR":"18 SPCS","OBJECT_NAME":"STARLINK-1216","OBJECT_ID":"2020-012H","CENTER_NAME":"EARTH","REF_FRAME":"TEME","TIME_SYSTEM":"UTC","MEAN_ELEMENT_THEORY":"SGP4","EPOCH":"2021-01-25T18:33:42.699168","MEAN_MOTION":15.06387417,"ECCENTRICITY":0.0001617,"INCLINATION":53.0582,"RA_OF_ASC_NODE":156.485,"ARG_OF_PERICENTER":81.7293,"MEAN_ANOMALY":278.3879,"EPHEMERIS_TYPE":0,"CLASSIFICATION_TYPE":"U","NORAD_CAT_ID":45185,"ELEMENT_SET_NO":999,"REV_AT_EPOCH":5309,"BSTAR":0.000068829,"MEAN_MOTION_DOT":0.00000743,"MEAN_MOTION_DDOT":0,"SEMIMAJOR_AXIS":6925.387,"PERIOD":95.593,"APOAPSIS":548.372,"PERIAPSIS":546.132,"OBJECT_TYPE":"PAYLOAD","RCS_SIZE":"LARGE","COUNTRY_CODE":"US","LAUNCH_DATE":"2020-02-17","SITE":"AFETR","DECAY_DATE":null,"DECAYED":0,"FILE":2939303,"GP_ID":170370707,"TLE_LINE0":"0 STARLINK-1216","TLE_LINE1":"1 45185U 20012H   21025.77341087  .00000743  00000-0  68829-4 0  9996","TLE_LINE2":"2 45185  53.0582 156.4850 0001617  81.7293 278.3879 15.06387417 53095"},"version":"v1.0","launch":"5eb87d41ffd86e000604b383","longitude":23,"latitude":50.321524627455354,"height_km":552.050498007121,"velocity_kms":7.5924912637874495,"id":"5eed7715096e590006985730"}
{"spaceTrack"{"CCSDS_OMM_VERS":"2.0","COMMENT":"GENERATED VIA SPACE-TRACK.ORG API","CREATION_DATE":"2021-01-26T02:30:00","ORIGINATOR":"18 SPCS","OBJECT_NAME":"STARLINK-1240","OBJECT_ID":"2020-012S","CENTER_NAME":"EARTH","REF_FRAME":"TEME","TIME_SYSTEM":"UTC","MEAN_ELEMENT_THEORY":"SGP4","EPOCH":"2021-01-25T18:28:25.436640","MEAN_MOTION":15.06392027,"ECCENTRICITY":0.0001607,"INCLINATION":53.0583,"RA_OF_ASC_NODE":156.505,"ARG_OF_PERICENTER":86.87,"MEAN_ANOMALY":273.2473,"EPHEMERIS_TYPE":0,"CLASSIFICATION_TYPE":"U","NORAD_CAT_ID":45194,"ELEMENT_SET_NO":999,"REV_AT_EPOCH":5304,"BSTAR":0.000067555,"MEAN_MOTION_DOT":0.00000725,"MEAN_MOTION_DDOT":0,"SEMIMAJOR_AXIS":6925.373,"PERIOD":95.593,"APOAPSIS":548.351,"PERIAPSIS":546.125,"OBJECT_TYPE":"PAYLOAD","RCS_SIZE":"LARGE","COUNTRY_CODE":"US","LAUNCH_DATE":"2020-02-17","SITE":"AFETR","DECAY_DATE":null,"DECAYED":0,"FILE":2939303,"GP_ID":170370935,"TLE_LINE0":"0 STARLINK-1240","TLE_LINE1":"1 45194U 20012S   21025.76973885  .00000725  00000-0  67555-4 0  9997","TLE_LINE2":"2 45194  53.0583 156.5050 0001607  86.8700 273.2473 15.06392027 53049"},"version":"v1.0","launch":"5eb87d41ffd86e000604b383","longitude":85,"latitude":53.01537506115217,"height_km":552.6438509006257,"velocity_kms":7.592427123612058,"id":"5eed7715096e590006985731"}
{"spaceTrack"{"CCSDS_OMM_VERS":"2.0","COMMENT":"GENERATED VIA SPACE-TRACK.ORG API","CREATION_DATE":"2021-01-26T13:36:10","ORIGINATOR":"18 SPCS","OBJECT_NAME":"STARLINK-1269","OBJECT_ID":"2020-012V","CENTER_NAME":"EARTH","REF_FRAME":"TEME","TIME_SYSTEM":"UTC","MEAN_ELEMENT_THEORY":"SGP4","EPOCH":"2021-01-26T08:05:47.615424","MEAN_MOTION":15.06383518,"ECCENTRICITY":0.0001355,"INCLINATION":53.0581,"RA_OF_ASC_NODE":153.9591,"ARG_OF_PERICENTER":97.0241,"MEAN_ANOMALY":263.0902,"EPHEMERIS_TYPE":0,"CLASSIFICATION_TYPE":"U","NORAD_CAT_ID":45197,"ELEMENT_SET_NO":999,"REV_AT_EPOCH":5232,"BSTAR":0.000069581,"MEAN_MOTION_DOT":0.00000755,"MEAN_MOTION_DDOT":0,"SEMIMAJOR_AXIS":6925.399,"PERIOD":95.593,"APOAPSIS":548.202,"PERIAPSIS":546.326,"OBJECT_TYPE":"PAYLOAD","RCS_SIZE":"LARGE","COUNTRY_CODE":"US","LAUNCH_DATE":"2020-02-17","SITE":"AFETR","DECAY_DATE":null,"DECAYED":0,"FILE":2939939,"GP_ID":170387344,"TLE_LINE0":"0 STARLINK-1269","TLE_LINE1":"1 45197U 20012V   21026.33735666  .00000755  00000-0  69581-4 0  9991","TLE_LINE2":"2 45197  53.0581 153.9591 0001355  97.0241 263.0902 15.06383518 52324"},"version":"v1.0","launch":"5eb87d41ffd86e000604b383","longitude":165,"latitude":-50.353241923390165,"height_km":565.4912896641654,"velocity_kms":7.577781838009454,"id":"5eed7715096e590006985732"}
